[{"OBJECT_NAME":"STARLINK-35799","OBJECT_ID":"2025-247AB","EPOCH":"2026-03-09T14:26:54.383712","MEAN_MOTION":15.3020256,"ECCENTRICITY":0.0001584,"INCLINATION":53.1602,"RA_OF_ASC_NODE":191.6048,"ARG_OF_PERICENTER":32.1266,"MEAN_ANOMALY":327.9832,"EPHEMERIS_TYPE":0,"CLASSIFICATION_TYPE":"U","NORAD_CAT_ID":66290,"ELEMENT_SET_NO":999,"REV_AT_EPOCH":2107,"BSTAR":0.0012208,"MEAN_MOTION_DOT":0.00035977,"MEAN_MOTION_DDOT":0},{"OBJECT_NAME":"SPACEMOBILE-005 DEB","OBJECT_ID":"2024-163K","EPOCH":"2026-03-09T07:33:15.902496","MEAN_MOTION":15.31481997,"ECCENTRICITY":0.00072885,"INCLINATION":52.9762,"RA_OF_ASC_NODE":31.7924,"ARG_OF_PERICENTER":175.8731,"MEAN_ANOMALY":184.2329,"EPHEMERIS_TYPE":0,"CLASSIFICATION_TYPE":"U","NORAD_CAT_ID":62373,"ELEMENT_SET_NO":999,"REV_AT_EPOCH":8280,"BSTAR":0.00063853778,"MEAN_MOTION_DOT":0.00019381,"MEAN_MOTION_DDOT":0}]
